STARLINK-2636           
1 48357U 21038E   21254.09382148  .00001617  00000-0  12741-3 0  9993
2 48357  53.0549 166.5301 0002127  56.5710 303.5482 15.06400074 20344
STARLINK-2624           
1 48358U 21038F   21253.75840315 -.00000011  00000-0  18147-4 0  9996
2 48358  53.0516 168.0603 0001933  59.9553 300.1627 15.06397303 19697
STARLINK-2628           
1 48359U 21038G   21254.02010645  .00000025  00000-0  20580-4 0  9991
2 48359  53.0533 166.8601 0001981  67.3453 292.7745 15.06396981 20977
STARLINK-2622           
1 48360U 21038H   21254.08277295  .00000786  00000-0  71652-4 0  9995
2 48360  53.0549 166.5750 0001890  50.4698 309.6457 15.06393725 20332
STARLINK-2591           
1 48361U 21038J   21253.88004229  .00000816  00000-0  73645-4 0  9996
2 48361  53.0543 167.5713 0001551  83.2824 276.8341 15.06398504 19713
STARLINK-2578           
1 48362U 21038K   21253.98302809 -.00000591  00000-0 -22017-4 0  9992
2 48362  53.0541 166.4014 0001978  56.7339 303.3839 15.04760196 20339
STARLINK-2626           
1 48363U 21038L   21253.85654012  .00001079  00000-0  91380-4 0  9994
2 48363  53.0552 162.5885 0001713  78.0270 282.0911 15.06391738 19788
STARLINK-2611           
1 48364U 21038M   21253.91825953 -.00000471  00000-0 -12744-4 0  9990
2 48364  53.0557 162.3112 0001929  68.7625 291.3570 15.06398356 19792
STARLINK-2608           
1 48365U 21038N   21254.02978642 -.00000046  00000-0  15819-4 0  9991
2 48365  53.0561 161.8125 0001918  69.1368 290.9826 15.06390991 20409
STARLINK-2631           
1 48366U 21038P   21254.08368889 -.00000450  00000-0 -11328-4 0  9995
2 48366  53.0547 156.5733 0002014  65.9766 294.1433 15.06401861 20470
STARLINK-2643           
1 48367U 21038Q   21254.08000416  .00000651  00000-0  62623-4 0  9990
2 48367  53.0570 156.5899 0001950  65.1338 294.9854 15.06397978 20473
STARLINK-2623           
1 48368U 21038R   21254.09748340  .00001429  00000-0  11483-3 0  9998
2 48368  53.0546 156.5106 0002065  68.3235 291.7973 15.06400369 20484
STARLINK-2641           
1 48369U 21038S   21254.07632220 -.00000460  00000-0 -11942-4 0  9993
2 48369  53.0514 156.6214 0002038  64.5207 295.5993 15.06394930 20477
STARLINK-2621           
1 48370U 21038T   21254.07263437 -.00000366  00000-0 -56741-5 0  9997
2 48370  53.0549 156.6239 0002262  67.6837 292.4392 15.06396461 20476
STARLINK-2589           
1 48371U 21038U   21253.73721309  .00000212  00000-0  33128-4 0  9998
2 48371  53.0559 158.1284 0001930  66.0251 294.0940 15.06397237 19836
STARLINK-2572           
1 48372U 21038V   21253.86622115 -.00000041  00000-0  16133-4 0  9996
2 48372  53.0557 157.5479 0002064  70.2481 289.8730 15.06400613 19859
STARLINK-2609           
1 48373U 21038W   21254.06158287 -.00000471  00000-0 -12708-4 0  9996
2 48373  53.0569 156.6719 0001788  67.4451 292.6727 15.06388948 20471
