[{"OBJECT_NAME":"STARLINK-2636","OBJECT_ID":"2021-038E","EPOCH":"2021-09-11T02:15:06.175872","MEAN_MOTION":15.06400074,"ECCENTRICITY":0.0002127,"INCLINATION":53.0549,"RA_OF_ASC_NODE":166.5301,"ARG_OF_PERICENTER":56.571,"MEAN_ANOMALY":303.5482,"EPHEMERIS_TYPE":0,"CLASSIFICATION_TYPE":"U","NORAD_CAT_ID":48357,"ELEMENT_SET_NO":999,"REV_AT_EPOCH":2034,"BSTAR":0.00012741,"MEAN_MOTION_DOT":1.617e-5,"MEAN_MOTION_DDOT":0},{"OBJECT_NAME":"STARLINK-2624","OBJECT_ID":"2021-038F","EPOCH":"2021-09-10T18:12:06.032160","MEAN_MOTION":15.06397303,"ECCENTRICITY":0.0001933,"INCLINATION":53.0516,"RA_OF_ASC_NODE":168.0603,"ARG_OF_PERICENTER":59.9553,"MEAN_ANOMALY":300.1627,"EPHEMERIS_TYPE":0,"CLASSIFICATION_TYPE":"U","NORAD_CAT_ID":48358,"ELEMENT_SET_NO":999,"REV_AT_EPOCH":1969,"BSTAR":1.8147e-5,"MEAN_MOTION_DOT":-1.1e-7,"MEAN_MOTION_DDOT":0},{"OBJECT_NAME":"STARLINK-2628","OBJECT_ID":"2021-038G","EPOCH":"2021-09-11T00:28:57.197280","MEAN_MOTION":15.06396981,"ECCENTRICITY":0.0001981,"INCLINATION":53.0533,"RA_OF_ASC_NODE":166.8601,"ARG_OF_PERICENTER":67.3453,"MEAN_ANOMALY":292.7745,"EPHEMERIS_TYPE":0,"CLASSIFICATION_TYPE":"U","NORAD_CAT_ID":48359,"ELEMENT_SET_NO":999,"REV_AT_EPOCH":2097,"BSTAR":2.058e-5,"MEAN_MOTION_DOT":2.5e-7,"MEAN_MOTION_DDOT":0},{"OBJECT_NAME":"STARLINK-2622","OBJECT_ID":"2021-038H","EPOCH":"2021-09-11T01:59:11.582880","MEAN_MOTION":15.06393725,"ECCENTRICITY":0.000189,"INCLINATION":53.0549,"RA_OF_ASC_NODE":166.575,"ARG_OF_PERICENTER":50.4698,"MEAN_ANOMALY":309.6457,"EPHEMERIS_TYPE":0,"CLASSIFICATION_TYPE":"U","NORAD_CAT_ID":48360,"ELEMENT_SET_NO":999,"REV_AT_EPOCH":2033,"BSTAR":7.1652e-5,"MEAN_MOTION_DOT":7.86e-6,"MEAN_MOTION_DDOT":0},{"OBJECT_NAME":"STARLINK-2591","OBJECT_ID":"2021-038J","EPOCH":"2021-09-10T21:07:15.653856","MEAN_MOTION":15.06398504,"ECCENTRICITY":0.0001551,"INCLINATION":53.0543,"RA_OF_ASC_NODE":167.5713,"ARG_OF_PERICENTER":83.2824,"MEAN_ANOMALY":276.8341,"EPHEMERIS_TYPE":0,"CLASSIFICATION_TYPE":"U","NORAD_CAT_ID":48361,"ELEMENT_SET_NO":999,"REV_AT_EPOCH":1971,"BSTAR":7.3645e-5,"MEAN_MOTION_DOT":8.16e-6,"MEAN_MOTION_DDOT":0},{"OBJECT_NAME":"STARLINK-2578","OBJECT_ID":"2021-038K","EPOCH":"2021-09-10T23:35:33.626976","MEAN_MOTION":15.04760196,"ECCENTRICITY":0.0001978,"INCLINATION":53.0541,"RA_OF_ASC_NODE":166.4014,"ARG_OF_PERICENTER":56.7339,"MEAN_ANOMALY":303.3839,"EPHEMERIS_TYPE":0,"CLASSIFICATION_TYPE":"U","NORAD_CAT_ID":48362,"ELEMENT_SET_NO":999,"REV_AT_EPOCH":2033,"BSTAR":-2.2017e-5,"MEAN_MOTION_DOT":-5.91e-6,"MEAN_MOTION_DDOT":0},{"OBJECT_NAME":"STARLINK-2626","OBJECT_ID":"2021-038L","EPOCH":"2021-09-10T20:33:25.066368","MEAN_MOTION":15.06391738,"ECCENTRICITY":0.0001713,"INCLINATION":53.0552,"RA_OF_ASC_NODE":162.5885,"ARG_OF_PERICENTER":78.027,"MEAN_ANOMALY":282.0911,"EPHEMERIS_TYPE":0,"CLASSIFICATION_TYPE":"U","NORAD_CAT_ID":48363,"ELEMENT_SET_NO":999,"REV_AT_EPOCH":1978,"BSTAR":9.138e-5,"MEAN_MOTION_DOT":1.079e-5,"MEAN_MOTION_DDOT":0},{"OBJECT_NAME":"STARLINK-2611","OBJECT_ID":"2021-038M","EPOCH":"2021-09-10T22:02:17.623392","MEAN_MOTION":15.06398356,"ECCENTRICITY":0.0001929,"INCLINATION":53.0557,"RA_OF_ASC_NODE":162.3112,"ARG_OF_PERICENTER":68.7625,"MEAN_ANOMALY":291.357,"EPHEMERIS_TYPE":0,"CLASSIFICATION_TYPE":"U","NORAD_CAT_ID":48364,"ELEMENT_SET_NO":999,"REV_AT_EPOCH":1979,"BSTAR":-1.2744e-5,"MEAN_MOTION_DOT":-4.71e-6,"MEAN_MOTION_DDOT":0},{"OBJECT_NAME":"STARLINK-2608","OBJECT_ID":"2021-038N","EPOCH":"2021-09-11T00:42:53.546688","MEAN_MOTION":15.06390991,"ECCENTRICITY":0.0001918,"INCLINATION":53.0561,"RA_OF_ASC_NODE":161.8125,"ARG_OF_PERICENTER":69.1368,"MEAN_ANOMALY":290.9826,"EPHEMERIS_TYPE":0,"CLASSIFICATION_TYPE":"U","NORAD_CAT_ID":48365,"ELEMENT_SET_NO":999,"REV_AT_EPOCH":2040,"BSTAR":1.5819e-5,"MEAN_MOTION_DOT":-4.6e-7,"MEAN_MOTION_DDOT":0},{"OBJECT_NAME":"STARLINK-2631","OBJECT_ID":"2021-038P","EPOCH":"2021-09-11T02:00:30.720096","MEAN_MOTION":15.06401861,"ECCENTRICITY":0.0002014,"INCLINATION":53.0547,"RA_OF_ASC_NODE":156.5733,"ARG_OF_PERICENTER":65.9766,"MEAN_ANOMALY":294.1433,"EPHEMERIS_TYPE":0,"CLASSIFICATION_TYPE":"U","NORAD_CAT_ID":48366,"ELEMENT_SET_NO":999,"REV_AT_EPOCH":2047,"BSTAR":-1.1328e-5,"MEAN_MOTION_DOT":-4.5e-6,"MEAN_MOTION_DDOT":0},{"OBJECT_NAME":"STARLINK-2643","OBJECT_ID":"2021-038Q","EPOCH":"2021-09-11T01:55:12.359424","MEAN_MOTION":15.06397978,"ECCENTRICITY":0.000195,"INCLINATION":53.057,"RA_OF_ASC_NODE":156.5899,"ARG_OF_PERICENTER":65.1338,"MEAN_ANOMALY":294.9854,"EPHEMERIS_TYPE":0,"CLASSIFICATION_TYPE":"U","NORAD_CAT_ID":48367,"ELEMENT_SET_NO":999,"REV_AT_EPOCH":2047,"BSTAR":6.2623e-5,"MEAN_MOTION_DOT":6.51e-6,"MEAN_MOTION_DDOT":0},{"OBJECT_NAME":"STARLINK-2623","OBJECT_ID":"2021-038R","EPOCH":"2021-09-11T02:20:22.565760","MEAN_MOTION":15.06400369,"ECCENTRICITY":0.0002065,"INCLINATION":53.0546,"RA_OF_ASC_NODE":156.5106,"ARG_OF_PERICENTER":68.3235,"MEAN_ANOMALY":291.7973,"EPHEMERIS_TYPE":0,"CLASSIFICATION_TYPE":"U","NORAD_CAT_ID":48368,"ELEMENT_SET_NO":999,"REV_AT_EPOCH":2048,"BSTAR":0.00011483,"MEAN_MOTION_DOT":1.429e-5,"MEAN_MOTION_DDOT":0},{"OBJECT_NAME":"STARLINK-2641","OBJECT_ID":"2021-038S","EPOCH":"2021-09-11T01:49:54.238080","MEAN_MOTION":15.0639493,"ECCENTRICITY":0.0002038,"INCLINATION":53.0514,"RA_OF_ASC_NODE":156.6214,"ARG_OF_PERICENTER":64.5207,"MEAN_ANOMALY":295.5993,"EPHEMERIS_TYPE":0,"CLASSIFICATION_TYPE":"U","NORAD_CAT_ID":48369,"ELEMENT_SET_NO":999,"REV_AT_EPOCH":2047,"BSTAR":-1.1942e-5,"MEAN_MOTION_DOT":-4.6e-6,"MEAN_MOTION_DDOT":0},{"OBJECT_NAME":"STARLINK-2621","OBJECT_ID":"2021-038T","EPOCH":"2021-09-11T01:44:35.609568","MEAN_MOTION":15.06396461,"ECCENTRICITY":0.0002262,"INCLINATION":53.0549,"RA_OF_ASC_NODE":156.6239,"ARG_OF_PERICENTER":67.6837,"MEAN_ANOMALY":292.4392,"EPHEMERIS_TYPE":0,"CLASSIFICATION_TYPE":"U","NORAD_CAT_ID":48370,"ELEMENT_SET_NO":999,"REV_AT_EPOCH":2047,"BSTAR":-5.6741e-6,"MEAN_MOTION_DOT":-3.66e-6,"MEAN_MOTION_DDOT":0},{"OBJECT_NAME":"STARLINK-2589","OBJECT_ID":"2021-038U","EPOCH":"2021-09-10T17:41:35.210976","MEAN_MOTION":15.06397237,"ECCENTRICITY":0.000193,"INCLINATION":53.0559,"RA_OF_ASC_NODE":158.1284,"ARG_OF_PERICENTER":66.0251,"MEAN_ANOMALY":294.094,"EPHEMERIS_TYPE":0,"CLASSIFICATION_TYPE":"U","NORAD_CAT_ID":48371,"ELEMENT_SET_NO":999,"REV_AT_EPOCH":1983,"BSTAR":3.3128e-5,"MEAN_MOTION_DOT":2.12e-6,"MEAN_MOTION_DDOT":0},{"OBJECT_NAME":"STARLINK-2572","OBJECT_ID":"2021-038V","EPOCH":"2021-09-10T20:47:21.507360","MEAN_MOTION":15.06400613,"ECCENTRICITY":0.0002064,"INCLINATION":53.0557,"RA_OF_ASC_NODE":157.5479,"ARG_OF_PERICENTER":70.2481,"MEAN_ANOMALY":289.873,"EPHEMERIS_TYPE":0,"CLASSIFICATION_TYPE":"U","NORAD_CAT_ID":48372,"ELEMENT_SET_NO":999,"REV_AT_EPOCH":1985,"BSTAR":1.6133e-5,"MEAN_MOTION_DOT":-4.1e-7,"MEAN_MOTION_DDOT":0},{"OBJECT_NAME":"STARLINK-2609","OBJECT_ID":"2021-038W","EPOCH":"2021-09-11T01:28:40.759968","MEAN_MOTION":15.06388948,"ECCENTRICITY":0.0001788,"INCLINATION":53.0569,"RA_OF_ASC_NODE":156.6719,"ARG_OF_PERICENTER":67.4451,"MEAN_ANOMALY":292.6727,"EPHEMERIS_TYPE":0,"CLASSIFICATION_TYPE":"U","NORAD_CAT_ID":48373,"ELEMENT_SET_NO":999,"REV_AT_EPOCH":2047,"BSTAR":-1.2708e-5,"MEAN_MOTION_DOT":-4.71e-6,"MEAN_MOTION_DDOT":0}]
